OBJECT_NAME,OBJECT_ID,EPOCH,MEAN_MOTION,ECCENTRICITY,INCLINATION,RA_OF_ASC_NODE,ARG_OF_PERICENTER,MEAN_ANOMALY,EPHEMERIS_TYPE,CLASSIFICATION_TYPE,NORAD_CAT_ID,ELEMENT_SET_NO,REV_AT_EPOCH,BSTAR,MEAN_MOTION_DOT,MEAN_MOTION_DDOT
HXMT (HUIYAN),2017-034A,2026-06-26T05:04:45.348672,15.18532142,.0031981,43.0130,132.7866,204.5587,155.3740,0,U,42758,999,49903,.22944E-3,.4645E-4,0
SAOCOM 1A,2018-076A,2026-06-26T04:22:45.450336,14.82153013,.0001556,97.8887,3.8005,78.8229,281.3159,0,U,43641,999,41743,.37842E-5,-.22E-6,0
H-2A R/B,2018-084L,2026-06-25T17:46:09.075648,15.45468972,.002251,98.8574,57.5006,11.3078,348.8667,0,U,43682,999,42244,.4947E-3,.23852E-3,0
SAOCOM 1B,2020-059A,2026-06-25T16:09:54.765792,14.82151565,.0001606,97.8891,2.3941,84.2973,275.8423,0,U,46265,999,31474,.59858E-4,.424E-5,0
CSS (TIANHE),2021-035A,2026-06-26T04:33:30.371904,15.61197983,.000796,41.4689,267.1993,154.0990,206.0249,0,U,48274,999,29457,.29528E-3,.25493E-3,0
COSMOS 2550,2021-056A,2026-06-26T03:40:30.567648,15.33851350,.0008415,67.1437,72.7845,268.0571,91.9620,0,U,48865,999,28009,.17878E-3,.5698E-4,0
CZ-2C R/B,2022-058K,2026-06-26T00:07:58.429632,15.62450807,.0031897,50.1846,117.6128,304.0762,55.7186,0,U,52794,999,22702,.4363E-3,.40257E-3,0
CZ-2C R/B,2022-132E,2026-06-26T00:00:57.951936,15.72565857,.0014294,97.2898,184.4233,56.3391,303.9234,0,U,54039,999,20733,.52173E-3,.70428E-3,0
GSLV R/B,2022-138AN,2026-06-25T22:33:16.446816,14.97293811,.0023917,87.3807,130.0448,114.5538,245.8191,0,U,54149,999,20012,.2757E-3,.3242E-4,0
XRISM,2023-137A,2026-06-25T18:28:31.958976,15.12535305,.0007833,31.0027,304.0050,50.1002,310.0325,0,U,57800,999,15416,.27781E-3,.5063E-4,0
ACS3,2024-077B,2026-06-25T16:09:09.259776,13.94547395,.0093118,97.1686,93.5731,57.9698,303.0473,0,U,59588,999,10922,.88845E-2,.12285E-3,0
CZ-8A R/B,2025-231K,2026-06-25T17:11:39.012864,14.30157085,.011649,50.0055,3.0288,254.0229,104.7828,0,U,66004,999,3616,.47767E-4,-.29E-6,0
SZ-21 MODULE,2025-246C,2026-06-25T13:50:09.665664,15.77097692,.0005109,41.4721,255.0496,55.8742,304.2587,0,U,66515,999,3506,.32197E-3,.54193E-3,0
